NORAD_CAT_ID,OBJECT_NAME,OBJECT_TYPE,EPOCH,MEAN_MOTION,ECCENTRICITY,INCLINATION,RA_OF_ASC_NODE,ARG_OF_PERICENTER,MEAN_ANOMALY,BSTAR,MEAN_MOTION_DOT,MEAN_MOTION_DDOT,TLE_LINE0,TLE_LINE1,TLE_LINE2,SEMIMAJOR_AXIS,PERIOD,APOGEE,PERIGEE,DECAYED
50179.0,STARLINK-3283,PAYLOAD,2022-11-03 11:54:24,15.08851831,0.000309,53.2175,335.7738,28.4116,331.7044,0.00029338,4.385e-05,0.0,0 STARLINK-3283,1 50179U 21125Z   22307.49611333  .00004385  00000-0  29338-3 0  9995,2 50179  53.2175 335.7738 0003090  28.4116 331.7044 15.08851831 51601,6917.844,95.437,541.847,537.572,0.0
50179.0,STARLINK-3283,PAYLOAD,2022-11-03 13:29:46,15.08851127,0.0003313,53.2174,335.4744,28.0023,332.1146,0.00017077,2.431e-05,0.0,0 STARLINK-3283,1 50179U 21125Z   22307.56234880  .00002431  00000-0  17077-3 0  9998,2 50179  53.2174 335.4744 0003313  28.0023 332.1146 15.08851127 52107,6917.846,95.437,542.003,537.419,0.0
50179.0,STARLINK-3283,PAYLOAD,2022-11-04 11:45:10,15.08858842,0.000288,53.217,331.3114,26.9017,333.2124,0.0001272,1.737e-05,0.0,0 STARLINK-3283,1 50179U 21125Z   22308.48970100  .00001737  00000-0  12720-3 0  9990,2 50179  53.2170 331.3114 0002880  26.9017 333.2124 15.08858842 52241,6917.823,95.436,541.68,537.695,0.0
50179.0,STARLINK-3283,PAYLOAD,2022-11-04 18:06:42,15.08850489,0.0003016,53.2167,330.1202,26.8051,333.3097,2.5199e-05,1.13e-06,0.0,0 STARLINK-3283,1 50179U 21125Z   22308.75466201  .00000113  00000-0  25199-4 0  9994,2 50179  53.2167 330.1202 0003016  26.8051 333.3097 15.08850489 51799,6917.848000000001,95.437,541.8,537.627,0.0
50179.0,STARLINK-3283,PAYLOAD,2022-11-05 10:00:34,15.08832468,0.0002874,53.2165,327.1471,25.788,334.3255,-0.00029215,-4.935e-05,0.0,0 STARLINK-3283,1 50179U 21125Z   22309.41706883 -.00004935  00000-0 -29215-3 0  9991,2 50179  53.2165 327.1471 0002874  25.7880 334.3255 15.08832468 51895,6917.903,95.438,541.757,537.78,0.0
50179.0,STARLINK-3283,PAYLOAD,2022-11-05 17:57:32,15.08816587,0.0003035,53.2175,325.6606,25.4094,334.7047,-0.00020101,-3.484e-05,0.0,0 STARLINK-3283,1 50179U 21125Z   22309.74829220 -.00003484  00000-0 -20101-3 0  9991,2 50179  53.2175 325.6606 0003035  25.4094 334.7047 15.08816587 51946,6917.9519999999975,95.439,541.9169999999998,537.717,0.0
50179.0,STARLINK-3283,PAYLOAD,2022-11-06 05:05:14,15.08826449,0.0002998,53.2173,323.5787,26.52,333.5945,-0.00016405,-2.898e-05,0.0,0 STARLINK-3283,1 50179U 21125Z   22310.21196911 -.00002898  00000-0 -16405-3 0  9999,2 50179  53.2173 323.5787 0002998  26.5200 333.5945 15.08826449 52010,6917.922,95.438,541.861,537.7130000000002,0.0
50179.0,STARLINK-3283,PAYLOAD,2022-11-06 11:26:46,15.08832224,0.0002958,53.2173,322.3893,27.4013,332.7135,-0.00010642,-1.982e-05,0.0,0 STARLINK-3283,1 50179U 21125Z   22310.47692564 -.00001982  00000-0 -10642-3 0  9992,2 50179  53.2173 322.3893 0002958  27.4013 332.7135 15.08832224 52057,6917.904,95.438,541.815,537.7230000000002,0.0
50179.0,STARLINK-3283,PAYLOAD,2022-11-07 04:56:00,15.0883544,0.000302,53.2175,319.1186,22.8883,337.2243,0.0001386999999999,1.919e-05,0.0,0 STARLINK-3283,1 50179U 21125Z   22311.20556136  .00001919  00000-0  13870-3 0  9992,2 50179  53.2175 319.1186 0003020  22.8883 337.2243 15.08835440 52168,6917.894,95.438,541.849,537.67,0.0
50179.0,STARLINK-3283,PAYLOAD,2022-11-07 12:52:56,15.08836014,0.0003036,53.2176,317.6321,27.9747,332.1408,0.00018865,2.715e-05,0.0,0 STARLINK-3283,1 50179U 21125Z   22311.53676496  .00002715  00000-0  18865-3 0  9994,2 50179  53.2176 317.6321 0003036  27.9747 332.1408 15.08836014 52700,6917.893,95.438,541.8580000000002,537.6569999999998,0.0
50179.0,STARLINK-3283,PAYLOAD,2022-11-08 06:22:10,15.08855796,0.0002987,53.2167,314.3619,27.9929,332.1223,0.00044592,6.819e-05,0.0,0 STARLINK-3283,1 50179U 21125Z   22312.26539836  .00006819  00000-0  44592-3 0  9996,2 50179  53.2167 314.3619 0002987  27.9929 332.1223 15.08855796 52321,6917.831999999999,95.437,541.763,537.631,0.0
50179.0,STARLINK-3283,PAYLOAD,2022-11-08 09:32:56,15.08856333,0.0002975,53.2165,313.769,29.9832,330.1330000000001,0.00028733,4.29e-05,0.0,0 STARLINK-3283,1 50179U 21125Z   22312.39787807  .00004290  00000-0  28733-3 0  9993,2 50179  53.2165 313.7690 0002975  29.9832 330.1330 15.08856333 52834,6917.83,95.437,541.754,537.637,0.0
50179.0,STARLINK-3283,PAYLOAD,2022-11-08 17:29:51,15.08865663,0.0003024,53.2163,312.2796,28.2362,331.8793,0.00043886,6.708e-05,0.0,0 STARLINK-3283,1 50179U 21125Z   22312.72907132  .00006708  00000-0  43886-3 0  9997,2 50179  53.2163 312.2796 0003024  28.2362 331.8793 15.08865663 52881,6917.802,95.436,541.759,537.575,0.0
50179.0,STARLINK-3283,PAYLOAD,2022-11-09 10:59:06,15.08845566,0.0003444,53.2162,309.009,26.4691,333.6477,-0.00024632,-4.208e-05,0.0,0 STARLINK-3283,1 50179U 21125Z   22313.45770853 -.00004208  00000-0 -24632-3 0  9999,2 50179  53.2162 309.0090 0003444  26.4691 333.6477 15.08845566 52993,6917.863,95.437,542.111,537.346,0.0
50179.0,STARLINK-3283,PAYLOAD,2022-11-10 04:28:21,15.08816125,0.0002861,53.2168,305.7382,24.0118,336.1007,-0.00054487,-8.945e-05,0.0,0 STARLINK-3283,1 50179U 21125Z   22314.18636231 -.00008945  00000-0 -54487-3 0  9994,2 50179  53.2168 305.7382 0002861  24.0118 336.1007 15.08816125 52611,6917.953,95.439,541.798,537.839,0.0
50179.0,STARLINK-3283,PAYLOAD,2022-11-10 10:49:54,15.08817778,0.0002844,53.2166,304.5478,23.656,336.4562,-0.0002543,-4.331e-05,0.0,0 STARLINK-3283,1 50179U 21125Z   22314.45132674 -.00004331  00000-0 -25430-3 0  9997,2 50179  53.2166 304.5478 0002844  23.6560 336.4562 15.08817778 53142,6917.948,95.439,541.781,537.846,0.0
50179.0,STARLINK-3283,PAYLOAD,2022-11-11 05:54:33,15.08828546,0.0002895,53.2165,300.9789,23.8925,336.2201,0.00071991,0.00011185,0.0,0 STARLINK-3283,1 50179U 21125Z   22315.24621910  .00011185  00000-0  71991-3 0  9997,2 50179  53.2165 300.9789 0002895  23.8925 336.2201 15.08828546 52770,6917.915,95.438,541.783,537.778,0.0
50179.0,STARLINK-3283,PAYLOAD,2022-11-11 10:40:42,15.08843426,0.0002926,53.2167,300.0868,24.1734,335.9395,0.0010953,0.00017189,0.0,0 STARLINK-3283,1 50179U 21125Z   22315.44493898  .00017189  00000-0  10953-2 0  9991,2 50179  53.2167 300.0868 0002926  24.1734 335.9395 15.08843426 53290,6917.87,95.437,541.759,537.711,0.0
50179.0,STARLINK-3283,PAYLOAD,2022-11-12 10:31:28,15.08863748,0.0002951,53.217,295.6264,25.6311,334.4827,0.00058734,9.078e-05,0.0,0 STARLINK-3283,1 50179U 21125Z   22316.43852811  .00009078  00000-0  58734-3 0  9993,2 50179  53.2170 295.6264 0002951  25.6311 334.4827 15.08863748 52953,6917.808000000001,95.436,541.714,537.631,0.0
50179.0,STARLINK-3283,PAYLOAD,2022-11-12 15:17:37,15.08870605,0.0002953,53.217,294.7345,26.1405,333.9736,0.00070451,0.00010952,0.0,0 STARLINK-3283,1 50179U 21125Z   22316.63724382  .00010952  00000-0  70451-3 0  9999,2 50179  53.2170 294.7345 0002953  26.1405 333.9736 15.08870605 53476,6917.7869999999975,95.436,541.695,537.609,0.0
50179.0,STARLINK-3283,PAYLOAD,2022-11-13 05:36:05,15.08854264,0.0002853,53.2171,292.0579,23.7707,336.3417,-0.00013772,-2.481e-05,0.0,0 STARLINK-3283,1 50179U 21125Z   22317.23339811 -.00002481  00000-0 -13772-3 0  9998,2 50179  53.2171 292.0579 0002853  23.7707 336.3417 15.08854264 53076,6917.837,95.437,541.675,537.7280000000002,0.0
50179.0,STARLINK-3283,PAYLOAD,2022-11-13 08:46:52,15.08849738,0.0003096,53.217,291.4637,22.4122,337.7005,-6.7946e-05,-1.3699999999999998e-05,0.0,0 STARLINK-3283,1 50179U 21125Z   22317.36588002 -.00001370  00000-0 -67946-4 0  9999,2 50179  53.2170 291.4637 0003096  22.4122 337.7005 15.08849738 53584,6917.851,95.437,541.857,537.5740000000002,0.0
50179.0,STARLINK-3283,PAYLOAD,2022-11-13 15:08:24,15.08849545,0.000296,53.2168,290.2743,23.9949,336.1181,-3.277e-05,-8.1e-06,0.0,0 STARLINK-3283,1 50179U 21125Z   22317.63083935 -.00000810  00000-0 -32770-4 0  9999,2 50179  53.2168 290.2743 0002960  23.9949 336.1181 15.08849545 53627,6917.851,95.437,541.764,537.669,0.0
50179.0,STARLINK-3283,PAYLOAD,2022-11-14 07:02:17,15.08823413,0.0002921999999999,53.218,287.3009,22.9633,337.149,3.5905e-05,2.83e-06,0.0,0 STARLINK-3283,1 50179U 21125Z   22318.29326214  .00000283  00000-0  35905-4 0  9997,2 50179  53.2180 287.3009 0002922  22.9633 337.1490 15.08823413 53237,6917.931,95.439,541.818,537.775,0.0
50179.0,STARLINK-3283,PAYLOAD,2022-11-14 08:37:40,15.08829156,0.0002951,53.2179,287.0032,21.9626,338.1492,4.8879e-06,-2.11e-06,0.0,0 STARLINK-3283,1 50179U 21125Z   22318.35949924 -.00000211  00000-0  48879-5 0  9990,2 50179  53.2179 287.0032 0002951  21.9626 338.1492 15.08829156 53739,6917.9140000000025,95.438,541.82,537.737,0.0
50179.0,STARLINK-3283,PAYLOAD,2022-11-14 21:20:45,15.08845182,0.0003276,53.2185,284.624,26.4288,333.6871,-5.1745e-05,-1.112e-05,0.0,0 STARLINK-3283,1 50179U 21125Z   22318.88941054 -.00001112  00000-0 -51745-4 0  9991,2 50179  53.2185 284.6240 0003276  26.4288 333.6871 15.08845182 53328,6917.865,95.437,541.996,537.4630000000002,0.0
50179.0,STARLINK-3283,PAYLOAD,2022-11-15 06:53:04,15.08833925,0.0003051,53.218,282.8396,26.6623,333.4526,-1.4331e-05,-5.17e-06,0.0,0 STARLINK-3283,1 50179U 21125Z   22319.28685607 -.00000517  00000-0 -14331-4 0  9993,2 50179  53.2180 282.8396 0003051  26.6623 333.4526 15.08833925 53384,6917.899,95.438,541.875,537.653,0.0
50179.0,STARLINK-3283,PAYLOAD,2022-11-15 08:28:27,15.08838677,0.0003141,53.2176,282.5429,21.4768,338.6356,-3.7284e-06,-3.48e-06,0.0,0 STARLINK-3283,1 50179U 21125Z   22319.35309250 -.00000348  00000-0 -37284-5 0  9993,2 50179  53.2176 282.5429 0003141  21.4768 338.6356 15.08838677 53888,6917.884,95.438,541.922,537.577,0.0
50179.0,STARLINK-3283,PAYLOAD,2022-11-16 09:54:37,15.08836269,0.0002927,53.2174,277.7855,25.5949,334.5188,0.00014778,2.064e-05,0.0,0 STARLINK-3283,1 50179U 21125Z   22320.41293516  .00002064  00000-0  14778-3 0  9995,2 50179  53.2174 277.7855 0002927  25.5949 334.5188 15.08836269 53559,6917.892,95.438,541.7819999999998,537.732,0.0
